IRIDIUM 159             
1 43578U 18061K   25054.10581445  .00000035  00000+0  53749-5 0  9997
2 43578  86.3915 256.8711 0001872  93.5375 266.6035 14.34217856344719
IRIDIUM 180             
1 43922U 19002A   25054.45415480  .00000011  00000+0 -30071-5 0  9997
2 43922  86.4024 193.6414 0002053  98.5157 261.6271 14.34217526320419
IRIDIUM 176             
1 43923U 19002B   25054.12259529  .00002240  00000+0  35148-3 0  9995
2 43923  86.6143 193.7813 0001975 112.8051 247.3375 14.72231038328761
IRIDIUM 168             
1 43924U 19002C   25054.44781147 -.00000005  00000+0 -89961-5 0  9990
2 43924  86.4026 193.7078 0001917  99.6981 260.4432 14.34217495320359
IRIDIUM 173             
1 43925U 19002D   25054.43512570  .00001018  00000+0  35658-3 0  9997
2 43925  86.4019 193.6211 0002173  95.1265 265.0178 14.34217455320344
IRIDIUM 169             
1 43926U 19002E   25054.01319809  .00000312  00000+0  95385-4 0  9992
2 43926  86.4213 225.3827 0003681  98.1377 262.0239 14.38591593321336
IRIDIUM 172             
1 43927U 19002F   25054.84739300  .00000502  00000+0  17217-3 0  9994
2 43927  86.4021 193.4557 0001941 100.4329 259.7085 14.34217774320401
IRIDIUM 175             
1 43928U 19002G   25053.84548188  .00002107  00000+0  33014-3 0  9992
2 43928  86.1556 152.9498 0002984  83.5726 276.5831 14.72240637328710
